1998-067XU              
1 66908U 98067XU  26023.44871410  .00119587  00000+0  15487-2 0  9998
2 66908  51.6283 294.3096 0003258 105.8280 254.3072 15.57991789  8104
SILVERSAT               
1 66909U 98067XV  26024.01243782  .00145933  00000+0  18045-2 0  9995
2 66909  51.6295 291.3241 0003504 124.3272 235.8052 15.59109704  8199
1998-067XW              
1 66910U 98067XW  26024.01706940  .00122100  00000+0  15574-2 0  9992
2 66910  51.6285 291.3519 0001893 103.1372 256.9832 15.58387225  8198
1998-067XX              
1 66911U 98067XX  26023.99352116  .00157543  00000+0  18718-2 0  9993
2 66911  51.6276 291.1946 0002356 133.5995 226.5193 15.60118099  8180
1998-067XY              
1 66912U 98067XY  26023.02742103  .00070113  00000+0  98264-3 0  9999
2 66912  51.6302 296.7470 0002983  85.1246 275.0086 15.56115873  8026
